[{"OBJECT_NAME":"STARLINK-32806","OBJECT_ID":"2025-014A","EPOCH":"2026-03-09T22:34:10.643808","MEAN_MOTION":15.27609483,"ECCENTRICITY":0.00027213,"INCLINATION":43.0032,"RA_OF_ASC_NODE":153.1644,"ARG_OF_PERICENTER":274.2278,"MEAN_ANOMALY":85.8262,"EPHEMERIS_TYPE":0,"CLASSIFICATION_TYPE":"U","NORAD_CAT_ID":62735,"ELEMENT_SET_NO":999,"REV_AT_EPOCH":6329,"BSTAR":0.0010823859,"MEAN_MOTION_DOT":0.00029671,"MEAN_MOTION_DDOT":0},{"OBJECT_NAME":"FREGAT DEB","OBJECT_ID":"2011-037NM","EPOCH":"2026-03-09T21:01:07.795488","MEAN_MOTION":13.39665912,"ECCENTRICITY":0.09103246,"INCLINATION":51.3884,"RA_OF_ASC_NODE":232.6021,"ARG_OF_PERICENTER":190.9383,"MEAN_ANOMALY":167.0453,"EPHEMERIS_TYPE":0,"CLASSIFICATION_TYPE":"U","NORAD_CAT_ID":47330,"ELEMENT_SET_NO":999,"REV_AT_EPOCH":22515,"BSTAR":0.024434627,"MEAN_MOTION_DOT":0.0019134,"MEAN_MOTION_DDOT":0}]
